{"type": "FeatureCollection", "features": [ {"type": "Feature", "properties": {"norad_id": 66868, "name": "STARLINK-36108", "group": "last-30-days", "lat": -8.670156206292667, "lon": -68.1290368882982, "alt_km": 325.2557689709638, "timestamp": "2025-12-15T22:44:27.662154+00:00", "meta": {"OBJECT_NAME": "STARLINK-36108", "OBJECT_ID": "2025-281W", "EPOCH": "2025-12-15T06:00:04.999968", "MEAN_MOTION": 15.84237083, "ECCENTRICITY": 0.00013354, "INCLINATION": 43.0006, "RA_OF_ASC_NODE": 106.7359, "ARG_OF_PERICENTER": 269.0906, "MEAN_ANOMALY": 263.5806, "EPHEMERIS_TYPE": 0, "CLASSIFICATION_TYPE": "U", "NORAD_CAT_ID": 66868, "ELEMENT_SET_NO": 999, "REV_AT_EPOCH": 164, "BSTAR": -0.0070586394, "MEAN_MOTION_DOT": -0.01463378, "MEAN_MOTION_DDOT": 0}, "tle": {"line1": "1 66868U 25281W   25349.25005787 -.01463378  00000+0 -70586-2 0  9990", "line2": "2 66868  43.0006 106.7359 0001335 269.0906 263.5806 15.84237083  1646"}}, "geometry": {"type": "Point", "coordinates": [-68.1290368882982, -8.670156206292667]}}, {"type": "Feature", "properties": {"norad_id": 66869, "name": "STARLINK-36092", "group": "last-30-days", "lat": -10.379262658239657, "lon": -66.21813978412472, "alt_km": 325.60758094441553, "timestamp": "2025-12-15T22:44:27.662164+00:00", "meta": {"OBJECT_NAME": "STARLINK-36092", "OBJECT_ID": "2025-281X", "EPOCH": "2025-12-15T06:00:04.999968", "MEAN_MOTION": 15.84204328, "ECCENTRICITY": 0.00014199, "INCLINATION": 43.0006, "RA_OF_ASC_NODE": 106.7292, "ARG_OF_PERICENTER": 272.3377, "MEAN_ANOMALY": 262.9873, "EPHEMERIS_TYPE": 0, "CLASSIFICATION_TYPE": "U", "NORAD_CAT_ID": 66869, "ELEMENT_SET_NO": 999, "REV_AT_EPOCH": 183, "BSTAR": -0.0071236908, "MEAN_MOTION_DOT": -0.014733, "MEAN_MOTION_DDOT": 0}, "tle": {"line1": "1 66869U 25281X   25349.25005787 -.01473300  00000+0 -71237-2 0  9991", "line2": "2 66869  43.0006 106.7292 0001419 272.3377 262.9873 15.84204328  1839"}}, "geometry": {"type": "Point", "coordinates": [-66.21813978412472, -10.379262658239657]}}, {"type": "Feature", "properties": {"norad_id": 66870, "name": "STARLINK-36114", "group": "last-30-days", "lat": -12.40972186672678, "lon": -63.90281790371497, "alt_km": 325.8474136200175, "timestamp": "2025-12-15T22:44:27.662174+00:00", "meta": {"OBJECT_NAME": "STARLINK-36114", "OBJECT_ID": "2025-281Y", "EPOCH": "2025-12-15T06:00:04.999968", "MEAN_MOTION": 15.8412847, "ECCENTRICITY": 0.00013836, "INCLINATION": 43.0004, "RA_OF_ASC_NODE": 106.721, "ARG_OF_PERICENTER": 266.51, "MEAN_ANOMALY": 272.0731, "EPHEMERIS_TYPE": 0, "CLASSIFICATION_TYPE": "U", "NORAD_CAT_ID": 66870, "ELEMENT_SET_NO": 999, "REV_AT_EPOCH": 170, "BSTAR": -0.0071926757, "MEAN_MOTION_DOT": -0.01481069, "MEAN_MOTION_DDOT": 0}, "tle": {"line1": "1 66870U 25281Y   25349.25005787 -.01481069  00000+0 -71927-2 0  9990", "line2": "2 66870  43.0004 106.7210 0001383 266.5100 272.0731 15.84128470  1702"}}, "geometry": {"type": "Point", "coordinates": [-63.90281790371497, -12.40972186672678]}}, {"type": "Feature", "properties": {"norad_id": 66871, "name": "STARLINK-36095", "group": "last-30-days", "lat": -14.437092570561706, "lon": -61.53161457592587, "alt_km": 326.4129857564458, "timestamp": "2025-12-15T22:44:27.662186+00:00", "meta": {"OBJECT_NAME": "STARLINK-36095", "OBJECT_ID": "2025-281Z", "EPOCH": "2025-12-15T06:00:04.999968", "MEAN_MOTION": 15.84055374, "ECCENTRICITY": 0.00012778, "INCLINATION": 43.0003, "RA_OF_ASC_NODE": 106.7121, "ARG_OF_PERICENTER": 270.8263, "MEAN_ANOMALY": 271.0567, "EPHEMERIS_TYPE": 0, "CLASSIFICATION_TYPE": "U", "NORAD_CAT_ID": 66871, "ELEMENT_SET_NO": 999, "REV_AT_EPOCH": 183, "BSTAR": -0.0073195768, "MEAN_MOTION_DOT": -0.01499357, "MEAN_MOTION_DDOT": 0}, "tle": {"line1": "1 66871U 25281Z   25349.25005787 -.01499357  00000+0 -73196-2 0  9990", "line2": "2 66871  43.0003 106.7121 0001277 270.8263 271.0567 15.84055374  1835"}}, "geometry": {"type": "Point", "coordinates": [-61.53161457592587, -14.437092570561706]}}, {"type": "Feature", "properties": {"norad_id": 66872, "name": "STARLINK-36082", "group": "last-30-days", "lat": -15.97747239088985, "lon": -59.681550260886944, "alt_km": 326.5212654647421, "timestamp": "2025-12-15T22:44:27.662198+00:00", "meta": {"OBJECT_NAME": "STARLINK-36082", "OBJECT_ID": "2025-281AA", "EPOCH": "2025-12-15T06:00:04.999968", "MEAN_MOTION": 15.8403007, "ECCENTRICITY": 0.00013949, "INCLINATION": 43.0004, "RA_OF_ASC_NODE": 106.7059, "ARG_OF_PERICENTER": 270.291, "MEAN_ANOMALY": 274.0083, "EPHEMERIS_TYPE": 0, "CLASSIFICATION_TYPE": "U", "NORAD_CAT_ID": 66872, "ELEMENT_SET_NO": 999, "REV_AT_EPOCH": 170, "BSTAR": -0.0072966966, "MEAN_MOTION_DOT": -0.01493692, "MEAN_MOTION_DDOT": 0}, "tle": {"line1": "1 66872U 25281AA  25349.25005787 -.01493692  00000+0 -72967-2 0  9992", "line2": "2 66872  43.0004 106.7059 0001394 270.2910 274.0083 15.84030070  1708"}}, "geometry": {"type": "Point", "coordinates": [-59.681550260886944, -15.97747239088985]}}, {"type": "Feature", "properties": {"norad_id": 66873, "name": "STARLINK-36128", "group": "last-30-days", "lat": -21.11815652887007, "lon": -53.10927390187387, "alt_km": 327.3841155905602, "timestamp": "2025-12-15T22:44:27.662208+00:00", "meta": {"OBJECT_NAME": "STARLINK-36128", "OBJECT_ID": "2025-281AB", "EPOCH": "2025-12-15T06:00:04.999968", "MEAN_MOTION": 15.83897145, "ECCENTRICITY": 0.00012898, "INCLINATION": 43, "RA_OF_ASC_NODE": 106.6844, "ARG_OF_PERICENTER": 270.0323, "MEAN_ANOMALY": 282.7757, "EPHEMERIS_TYPE": 0, "CLASSIFICATION_TYPE": "U", "NORAD_CAT_ID": 66873, "ELEMENT_SET_NO": 999, "REV_AT_EPOCH": 183, "BSTAR": -0.0075576349, "MEAN_MOTION_DOT": -0.01531881, "MEAN_MOTION_DDOT": 0}, "tle": {"line1": "1 66873U 25281AB  25349.25005787 -.01531881  00000+0 -75576-2 0  9995", "line2": "2 66873  43.0000 106.6844 0001289 270.0323 282.7757 15.83897145  1836"}}, "geometry": {"type": "Point", "coordinates": [-53.10927390187387, -21.11815652887007]}}, {"type": "Feature", "properties": {"norad_id": 66874, "name": "STARLINK-36129", "group": "last-30-days", "lat": -17.895484659754846, "lon": -57.30820834655335, "alt_km": 326.8984188371578, "timestamp": "2025-12-15T22:44:27.662220+00:00", "meta": {"OBJECT_NAME": "STARLINK-36129", "OBJECT_ID": "2025-281AC", "EPOCH": "2025-12-15T06:00:04.999968", "MEAN_MOTION": 15.83962646, "ECCENTRICITY": 0.0001333, "INCLINATION": 43.0001, "RA_OF_ASC_NODE": 106.6981, "ARG_OF_PERICENTER": 269.952, "MEAN_ANOMALY": 277.5255, "EPHEMERIS_TYPE": 0, "CLASSIFICATION_TYPE": "U", "NORAD_CAT_ID": 66874, "ELEMENT_SET_NO": 999, "REV_AT_EPOCH": 183, "BSTAR": -0.0074008531, "MEAN_MOTION_DOT": -0.01508099, "MEAN_MOTION_DDOT": 0}, "tle": {"line1": "1 66874U 25281AC  25349.25005787 -.01508099  00000+0 -74009-2 0  9991", "line2": "2 66874  43.0001 106.6981 0001333 269.9520 277.5255 15.83962646  1830"}}, "geometry": {"type": "Point", "coordinates": [-57.30820834655335, -17.895484659754846]}}, {"type": "Feature", "properties": {"norad_id": 66875, "name": "STARLINK-36053", "group": "last-30-days", "lat": -22.78529214055553, "lon": -50.80972414587639, "alt_km": 327.57795049776814, "timestamp": "2025-12-15T22:44:27.662230+00:00", "meta": {"OBJECT_NAME": "STARLINK-36053", "OBJECT_ID": "2025-281AD", "EPOCH": "2025-12-15T06:00:04.999968", "MEAN_MOTION": 15.83843838, "ECCENTRICITY": 0.00013895, "INCLINATION": 43.0003, "RA_OF_ASC_NODE": 106.6766, "ARG_OF_PERICENTER": 269.7999, "MEAN_ANOMALY": 285.8567, "EPHEMERIS_TYPE": 0, "CLASSIFICATION_TYPE": "U", "NORAD_CAT_ID": 66875, "ELEMENT_SET_NO": 999, "REV_AT_EPOCH": 183, "BSTAR": -0.0075745492, "MEAN_MOTION_DOT": -0.01531502, "MEAN_MOTION_DDOT": 0}, "tle": {"line1": "1 66875U 25281AD  25349.25005787 -.01531502  00000+0 -75745-2 0  9995", "line2": "2 66875  43.0003 106.6766 0001389 269.7999 285.8567 15.83843838  1832"}}, "geometry": {"type": "Point", "coordinates": [-50.80972414587639, -22.78529214055553]}}, {"type": "Feature", "properties": {"norad_id": 66876, "name": "STARLINK-35702", "group": "last-30-days", "lat": -19.775696128696296, "lon": -54.89460320067236, "alt_km": 327.2776914896667, "timestamp": "2025-12-15T22:44:27.662242+00:00", "meta": {"OBJECT_NAME": "STARLINK-35702", "OBJECT_ID": "2025-281AE", "EPOCH": "2025-12-15T06:00:04.999968", "MEAN_MOTION": 15.83893136, "ECCENTRICITY": 0.00014312, "INCLINATION": 43.0004, "RA_OF_ASC_NODE": 106.6902, "ARG_OF_PERICENTER": 272.1252, "MEAN_ANOMALY": 278.5158, "EPHEMERIS_TYPE": 0, "CLASSIFICATION_TYPE": "U", "NORAD_CAT_ID": 66876, "ELEMENT_SET_NO": 999, "REV_AT_EPOCH": 183, "BSTAR": -0.0074822258, "MEAN_MOTION_DOT": -0.01518273, "MEAN_MOTION_DDOT": 0}, "tle": {"line1": "1 66876U 25281AE  25349.25005787 -.01518273  00000+0 -74822-2 0  9991", "line2": "2 66876  43.0004 106.6902 0001431 272.1252 278.5158 15.83893136  1835"}}, "geometry": {"type": "Point", "coordinates": [-54.89460320067236, -19.775696128696296]}}, {"type": "Feature", "properties": {"norad_id": 66877, "name": "ZQ-3 R/B", "group": "last-30-days", "lat": -44.08545836653039, "lon": 6.238915539399718, "alt_km": 534.206772977409, "timestamp": "2025-12-15T22:44:27.662253+00:00", "meta": {"OBJECT_NAME": "ZQ-3 R/B", "OBJECT_ID": "2025-282A", "EPOCH": "2025-12-15T08:16:20.168832", "MEAN_MOTION": 14.64954974, "ECCENTRICITY": 0.07563846, "INCLINATION": 56.9512, "RA_OF_ASC_NODE": 47.6627, "ARG_OF_PERICENTER": 224.4838, "MEAN_ANOMALY": 129.3024, "EPHEMERIS_TYPE": 0, "CLASSIFICATION_TYPE": "U", "NORAD_CAT_ID": 66877, "ELEMENT_SET_NO": 999, "REV_AT_EPOCH": 177, "BSTAR": 0.00020352027, "MEAN_MOTION_DOT": 0.01053515, "MEAN_MOTION_DDOT": 7.578075e-06}, "tle": {"line1": "1 66877U 25282A   25349.34467788  .01053515  75781-5  20352-3 0  9991", "line2": "2 66877  56.9512  47.6627 0756384 224.4838 129.3024 14.64954974  1779"}}, "geometry": {"type": "Point", "coordinates": [6.238915539399718, -44.08545836653039]}}]}